{
    "links": {
        "self": "http://www.neowsapp.com/rest/v1/neo/3588015?api_key=iIulBulltgU6a56xZRHN4H3l9WmuAYTsLGpBGhQ2"
    },
    "id": "3588015",
    "neo_reference_id": "3588015",
    "name": "(2011 WN2)",
    "designation": "2011 WN2",
    "nasa_jpl_url": "http://ssd.jpl.nasa.gov/sbdb.cgi?sstr=3588015",
    "absolute_magnitude_h": 25.2,
    "estimated_diameter": {
        "kilometers": {
            "estimated_diameter_min": 0.0242412481,
            "estimated_diameter_max": 0.0542050786
        },
        "meters": {
            "estimated_diameter_min": 24.2412481101,
            "estimated_diameter_max": 54.2050786336
        },
        "miles": {
            "estimated_diameter_min": 0.0150628086,
            "estimated_diameter_max": 0.0336814639
        },
        "feet": {
            "estimated_diameter_min": 79.5316564495,
            "estimated_diameter_max": 177.8381901842
        }
    },
    "is_potentially_hazardous_asteroid": false,
    "close_approach_data": [
        {
            "close_approach_date": "1918-12-30",
            "close_approach_date_full": "1918-Dec-30 23:51",
            "epoch_date_close_approach": -1609546140000,
            "relative_velocity": {
                "kilometers_per_second": "9.1111953048",
                "kilometers_per_hour": "32800.3030971575",
                "miles_per_hour": "20380.832777231"
            },
            "miss_distance": {
                "astronomical": "0.089444824",
                "lunar": "34.794036536",
                "kilometers": "13380755.15292488",
                "miles": "8314415.707448144"
            },
            "orbiting_body": "Earth"
        },
        {
            "close_approach_date": "2011-11-25",
            "close_approach_date_full": "2011-Nov-25 20:02",
            "epoch_date_close_approach": 1322251320000,
            "relative_velocity": {
                "kilometers_per_second": "8.7055501034",
                "kilometers_per_hour": "31339.9803722648",
                "miles_per_hour": "19473.4450263108"
            },
            "miss_distance": {
                "astronomical": "0.0209946237",
                "lunar": "8.1669086193",
                "kilometers": "3140750.986971519",
                "miles": "1951572.1677002022"
            },
            "orbiting_body": "Earth"
        },
        {
            "close_approach_date": "2064-01-18",
            "close_approach_date_full": "2064-Jan-18 07:47",
            "epoch_date_close_approach": 2967868020000,
            "relative_velocity": {
                "kilometers_per_second": "11.9735512022",
                "kilometers_per_hour": "43104.7843278286",
                "miles_per_hour": "26783.6366841444"
            },
            "miss_distance": {
                "astronomical": "0.1607740314",
                "lunar": "62.5410982146",
                "kilometers": "24051452.648753118",
                "miles": "14944879.6726563084"
            },
            "orbiting_body": "Earth"
        }
    ],
    "orbital_data": {
        "orbit_id": "12",
        "orbit_determination_date": "2017-04-06 08:52:01",
        "first_observation_date": "2011-11-17",
        "last_observation_date": "2011-11-23",
        "data_arc_in_days": 6,
        "observations_used": 67,
        "orbit_uncertainty": "7",
        "minimum_orbit_intersection": ".0206628",
        "jupiter_tisserand_invariant": "3.263",
        "epoch_osculation": "2459000.5",
        "eccentricity": ".5907507570394073",
        "semi_major_axis": "2.394578842738576",
        "inclination": "5.423318646854981",
        "ascending_node_longitude": "232.5429145165559",
        "orbital_period": "1353.449756672024",
        "perihelion_distance": ".9799795786002146",
        "perihelion_argument": "208.6505047556491",
        "aphelion_distance": "3.809178106876938",
        "perihelion_time": "2458613.928046771963",
        "mean_anomaly": "102.8231025762538",
        "mean_motion": ".2659869701297211",
        "equinox": "J2000",
        "orbit_class": {
            "orbit_class_type": "APO",
            "orbit_class_description": "Near-Earth asteroid orbits which cross the Earth’s orbit similar to that of 1862 Apollo",
            "orbit_class_range": "a (semi-major axis) > 1.0 AU; q (perihelion) < 1.017 AU"
        }
    },
    "is_sentry_object": false
}